OBJECT_NAME,OBJECT_ID,EPOCH,MEAN_MOTION,ECCENTRICITY,INCLINATION,RA_OF_ASC_NODE,ARG_OF_PERICENTER,MEAN_ANOMALY,EPHEMERIS_TYPE,CLASSIFICATION_TYPE,NORAD_CAT_ID,ELEMENT_SET_NO,REV_AT_EPOCH,BSTAR,MEAN_MOTION_DOT,MEAN_MOTION_DDOT
CUBEBUG-2 (LO-74),2013-066AA,2026-07-17T14:33:09.188640,14.93976531,.00556015,97.8919,147.7205,287.2018,72.3120,0,U,39440,999,68153,.18322251E-3,.1948E-4,0
FUNCUBE-1 (AO-73),2013-066AE,2026-07-17T08:19:54.611904,15.09834376,.00379422,97.8294,170.4330,100.7078,259.8426,0,U,39444,999,68421,.25765723E-3,.4168E-4,0
UWE-3,2013-066AG,2026-07-17T08:36:26.489952,14.97207851,.00475889,97.8718,154.6426,217.0557,142.7376,0,U,39446,999,68209,.17893026E-3,.2054E-4,0
UNISAT-6,2014-033C,2026-07-17T06:04:05.500416,14.88371050,.00440226,97.7911,350.4435,330.8621,29.0140,0,U,40012,999,65063,.11749899E-3,.105E-4,0
DUCHIFAT-1,2014-033M,2026-07-16T16:46:11.491104,15.71313651,.00027866,98.0414,261.1627,236.8489,123.2505,0,U,40021,999,66037,.77546207E-3,.99153E-3,0
QB50P1,2014-033R,2026-07-17T00:01:44.720256,15.18681576,.00104593,98.0964,211.2472,119.5295,240.6982,0,U,40025,999,65755,.20646572E-3,.4208E-4,0
LILACSAT-2,2015-049K,2026-07-17T13:50:21.727968,15.52412720,.00085006,97.4622,236.5886,134.5938,225.6010,0,U,40908,999,60046,.17847448E-3,.10811E-3,0
FOX-1A (AO-85),2015-058D,2026-07-17T09:37:01.217856,14.91095970,.01325376,64.7725,185.0785,44.9727,316.2027,0,U,40967,999,11807,.15191358E-3,.1604E-4,0
CAS-2T & KS-1Q,2016-066G,2026-07-17T03:49:43.427424,14.44772533,.03421437,98.3813,273.5527,38.8094,323.7141,0,U,41847,999,50912,.74643151E-4,.472E-5,0
RADFXSAT (FOX-1B),2017-073E,2026-07-17T13:35:01.970592,15.13080744,.01483322,97.4662,65.1618,223.2065,135.7454,0,U,43017,999,46998,.16850652E-3,.3831E-4,0
DIWATA-2B,2018-084H,2026-07-17T13:52:35.978016,15.00568470,.00126832,98.1211,36.1171,77.0926,283.1713,0,U,43678,999,42077,.86117817E-4,.1022E-4,0
ES'HAIL 2,2018-090A,2026-07-17T15:06:21.386880,1.00272343,.00023065,0.0133,73.4101,84.9981,29.4009,0,U,43700,999,2798,0,.135E-5,0
FOX-1CLIFF (AO-95),2018-099N,2026-07-17T10:01:18.672672,15.27300598,.00074278,97.4364,258.5624,230.6707,129.3874,0,U,43770,999,41783,.21738843E-3,.5742E-4,0
ITASAT,2018-099AE,2026-07-17T13:59:11.536224,15.19397594,.00109949,97.4008,249.4921,240.9559,119.0575,0,U,43786,999,41752,.14271187E-3,.2956E-4,0
JY1SAT (JO-97),2018-099AX,2026-07-17T14:54:41.064768,15.34566538,.00070571,97.4108,261.5784,150.8964,209.2673,0,U,43803,999,41829,.27313156E-3,.9074E-4,0
UWE-4,2018-111E,2026-07-17T13:12:29.063232,15.47912898,.00065305,97.5840,128.3820,185.4012,174.7168,0,U,43880,999,41547,.35698274E-3,.18535E-3,0
TIANYAN 01,2019-093C,2026-07-17T14:30:00.054720,14.86561127,.00133978,97.7520,270.0929,353.5149,6.5891,0,U,44881,999,35593,.2664094E-4,.183E-5,0
RS-44 & BREEZE-KM R/B,2019-096E,2026-07-17T13:46:14.271456,12.79748887,.02184936,82.5243,319.5142,73.4624,289.0355,0,U,44909,999,30623,.28150373E-4,.2E-6,0
SALSAT,2020-068K,2026-07-16T23:14:24.421344,15.30186484,.00093844,97.8858,202.8562,186.4299,173.6821,0,U,46495,999,31991,.1366282E-3,.3909E-4,0
XW-3 (CAS-9),2021-131B,2026-07-17T14:22:12.480384,14.41382942,.00044587,98.4992,290.8245,24.2413,335.8985,0,U,50466,999,23949,.89915004E-4,.247E-5,0
GREENCUBE (IO-117),2022-080E,2026-07-17T05:19:51.691584,6.42583336,.00090719,70.1407,287.8015,282.9900,76.9746,0,U,53109,999,9399,0,-.3E-7,0
UMKA 1 (RS40S),2023-091G,2026-07-17T14:52:34.022208,15.21136007,.00127891,97.5031,257.2037,21.3819,338.7949,0,U,57172,999,16863,.13719993E-3,.2989E-4,0
CUBESX-HSE 3 (RS42S),2023-091N,2026-07-17T14:51:45.722016,15.31918640,.00094046,97.5072,264.6042,353.1084,7.0026,0,U,57178,999,16908,.21320336E-3,.6498E-4,0
MONITOR-3 (RS58S),2023-091Q,2026-07-17T13:57:17.889984,15.28398627,.00107317,97.5063,262.2601,1.1997,358.9266,0,U,57180,999,16893,.19153931E-3,.5227E-4,0
MONITOR-4 (RS57S),2023-091S,2026-07-17T14:58:58.171296,15.28486233,.00107378,97.5057,262.2762,1.3383,358.7884,0,U,57182,999,16894,.18677425E-3,.5108E-4,0
MONITOR-2 (RS39S),2023-091U,2026-07-17T14:44:15.959904,15.19166216,.00111425,97.5053,256.7025,15.8917,344.2665,0,U,57184,999,16857,.10807359E-3,.2206E-4,0
SVYATOBOR 1 (RS60S),2023-091X,2026-07-17T14:22:26.989536,15.27085212,.00084927,97.5071,262.5917,356.0094,4.1076,0,U,57187,999,16895,.16685147E-3,.4361E-4,0
VIZARD-METEO (RS38S),2023-091Z,2026-07-17T15:01:35.087520,15.36919202,.00054681,97.5074,268.7394,329.3404,30.7520,0,U,57189,999,16936,.23719759E-3,.8482E-4,0
POLYTECH-UNIVERSE 3 (RS46S),2023-091AB,2026-07-17T15:17:26.960640,15.19379322,.00158403,97.5028,256.2297,29.6327,330.5801,0,U,57191,999,16857,.12290279E-3,.2538E-4,0
UTMN 2 (RS27S),2023-091AP,2026-07-17T14:53:29.903136,15.32735350,.00065044,97.5069,266.2761,340.7545,19.3451,0,U,57203,999,16920,.20584088E-3,.643E-4,0
